{
  "type": "FeatureCollection",
  "features": [
    {
      "type": "Feature",
      "properties": {
        "norad_id": 38827,
        "name": "FENGYUN 1C DEB",
        "group": "fengyun-1c-debris",
        "lat": 23.09224671934938,
        "lon": -158.41693209497885,
        "alt_km": 880.856828495921,
        "timestamp": "2025-12-21T07:34:34.805570+00:00",
        "meta_object_name": "FENGYUN 1C DEB",
        "meta_object_id": "1999-025EVT",
        "meta_epoch": "2025-12-15T08:22:40.312416",
        "meta_mean_motion": 14.32871633,
        "meta_eccentricity": 0.02162225,
        "meta_inclination": 98.3869,
        "meta_ra_of_asc_node": 12.1956,
        "meta_arg_of_pericenter": 305.0884,
        "meta_mean_anomaly": 53.0194,
        "meta_ephemeris_type": 0,
        "meta_classification_type": "U",
        "meta_norad_cat_id": 38827,
        "meta_element_set_no": 999,
        "meta_rev_at_epoch": 61097,
        "meta_bstar": 0.00067109262,
        "meta_mean_motion_dot": 2.325e-05,
        "meta_mean_motion_ddot": 0,
        "tle_line1": "1 38827U 99025EVT 25349.34907769  .00002325  00000+0  67109-3 0  9998",
        "tle_line2": "2 38827  98.3869  12.1956 0216222 305.0884  53.0194 14.32871633610973"
      },
      "geometry": {
        "type": "Point",
        "coordinates": [
          -158.41693209497885,
          23.09224671934938
        ]
      }
    },
    {
      "type": "Feature",
      "properties": {
        "norad_id": 38829,
        "name": "FENGYUN 1C DEB",
        "group": "fengyun-1c-debris",
        "lat": 81.24472453320644,
        "lon": -78.77928916387557,
        "alt_km": 851.0371382914454,
        "timestamp": "2025-12-21T07:34:34.805579+00:00",
        "meta_object_name": "FENGYUN 1C DEB",
        "meta_object_id": "1999-025EVV",
        "meta_epoch": "2025-12-12T18:40:24.452256",
        "meta_mean_motion": 14.09216687,
        "meta_eccentricity": 0.0041168,
        "meta_inclination": 98.7498,
        "meta_ra_of_asc_node": 2.7487,
        "meta_arg_of_pericenter": 30.5355,
        "meta_mean_anomaly": 329.82,
        "meta_ephemeris_type": 0,
        "meta_classification_type": "U",
        "meta_norad_cat_id": 38829,
        "meta_element_set_no": 999,
        "meta_rev_at_epoch": 64133,
        "meta_bstar": 0.00086306808,
        "meta_mean_motion_dot": 1.47e-05,
        "meta_mean_motion_ddot": 0,
        "tle_line1": "1 38829U 99025EVV 25346.77806079  .00001470  00000+0  86307-3 0  9997",
        "tle_line2": "2 38829  98.7498   2.7487 0041168  30.5355 329.8200 14.09216687641331"
      },
      "geometry": {
        "type": "Point",
        "coordinates": [
          -78.77928916387557,
          81.24472453320644
        ]
      }
    },
    {
      "type": "Feature",
      "properties": {
        "norad_id": 38832,
        "name": "FENGYUN 1C DEB",
        "group": "fengyun-1c-debris",
        "lat": 22.07948355533026,
        "lon": 36.05889811799927,
        "alt_km": 816.6594324974094,
        "timestamp": "2025-12-21T07:34:34.805588+00:00",
        "meta_object_name": "FENGYUN 1C DEB",
        "meta_object_id": "1999-025EVY",
        "meta_epoch": "2025-12-06T01:35:41.081280",
        "meta_mean_motion": 14.04461067,
        "meta_eccentricity": 0.00842955,
        "meta_inclination": 99.2666,
        "meta_ra_of_asc_node": 24.2995,
        "meta_arg_of_pericenter": 61.4582,
        "meta_mean_anomaly": 299.5038,
        "meta_ephemeris_type": 0,
        "meta_classification_type": "U",
        "meta_norad_cat_id": 38832,
        "meta_element_set_no": 999,
        "meta_rev_at_epoch": 63664,
        "meta_bstar": 0.0018423355,
        "meta_mean_motion_dot": 2.987e-05,
        "meta_mean_motion_ddot": 0,
        "tle_line1": "1 38832U 99025EVY 25340.06644770  .00002987  00000+0  18423-2 0  9992",
        "tle_line2": "2 38832  99.2666  24.2995 0084295  61.4582 299.5038 14.04461067636643"
      },
      "geometry": {
        "type": "Point",
        "coordinates": [
          36.05889811799927,
          22.07948355533026
        ]
      }
    },
    {
      "type": "Feature",
      "properties": {
        "norad_id": 39537,
        "name": "FENGYUN 1C DEB",
        "group": "fengyun-1c-debris",
        "lat": -39.08758234410912,
        "lon": 148.37347956686392,
        "alt_km": 825.2302965303752,
        "timestamp": "2025-12-21T07:34:34.805597+00:00",
        "meta_object_name": "FENGYUN 1C DEB",
        "meta_object_id": "1999-025EWE",
        "meta_epoch": "2025-12-19T15:51:43.070688",
        "meta_mean_motion": 13.84193589,
        "meta_eccentricity": 0.0177797,
        "meta_inclination": 99.1526,
        "meta_ra_of_asc_node": 139.2359,
        "meta_arg_of_pericenter": 322.4144,
        "meta_mean_anomaly": 36.4691,
        "meta_ephemeris_type": 0,
        "meta_classification_type": "U",
        "meta_norad_cat_id": 39537,
        "meta_element_set_no": 999,
        "meta_rev_at_epoch": 59352,
        "meta_bstar": 0.0010435,
        "meta_mean_motion_dot": 1.271e-05,
        "meta_mean_motion_ddot": 0,
        "tle_line1": "1 39537U 99025EWE 25353.66091517  .00001271  00000+0  10435-2 0  9990",
        "tle_line2": "2 39537  99.1526 139.2359 0177797 322.4144  36.4691 13.84193589593525"
      },
      "geometry": {
        "type": "Point",
        "coordinates": [
          148.37347956686392,
          -39.08758234410912
        ]
      }
    },
    {
      "type": "Feature",
      "properties": {
        "norad_id": 39541,
        "name": "FENGYUN 1C DEB",
        "group": "fengyun-1c-debris",
        "lat": 76.18285200902076,
        "lon": -1.1366227385285408,
        "alt_km": 772.0213064841209,
        "timestamp": "2025-12-21T07:34:34.805609+00:00",
        "meta_object_name": "FENGYUN 1C DEB",
        "meta_object_id": "1999-025EWJ",
        "meta_epoch": "2025-12-14T09:31:50.250432",
        "meta_mean_motion": 14.20397112,
        "meta_eccentricity": 0.00718166,
        "meta_inclination": 98.681,
        "meta_ra_of_asc_node": 30.4764,
        "meta_arg_of_pericenter": 68.7411,
        "meta_mean_anomaly": 292.1416,
        "meta_ephemeris_type": 0,
        "meta_classification_type": "U",
        "meta_norad_cat_id": 39541,
        "meta_element_set_no": 999,
        "meta_rev_at_epoch": 59026,
        "meta_bstar": 0.00071004371,
        "meta_mean_motion_dot": 1.519e-05,
        "meta_mean_motion_ddot": 0,
        "tle_line1": "1 39541U 99025EWJ 25348.39710938  .00001519  00000+0  71004-3 0  9999",
        "tle_line2": "2 39541  98.6810  30.4764 0071816  68.7411 292.1416 14.20397112590267"
      },
      "geometry": {
        "type": "Point",
        "coordinates": [
          -1.1366227385285408,
          76.18285200902076
        ]
      }
    },
    {
      "type": "Feature",
      "properties": {
        "norad_id": 39543,
        "name": "FENGYUN 1C DEB",
        "group": "fengyun-1c-debris",
        "lat": 35.19593595384841,
        "lon": -148.88665143514592,
        "alt_km": 767.362854073609,
        "timestamp": "2025-12-21T07:34:34.805618+00:00",
        "meta_object_name": "FENGYUN 1C DEB",
        "meta_object_id": "1999-025EWL",
        "meta_epoch": "2025-12-18T08:47:52.753056",
        "meta_mean_motion": 13.70202499,
        "meta_eccentricity": 0.03390808,
        "meta_inclination": 99.0409,
        "meta_ra_of_asc_node": 21.8883,
        "meta_arg_of_pericenter": 127.4128,
        "meta_mean_anomaly": 235.8396,
        "meta_ephemeris_type": 0,
        "meta_classification_type": "U",
        "meta_norad_cat_id": 39543,
        "meta_element_set_no": 999,
        "meta_rev_at_epoch": 49262,
        "meta_bstar": 0.00072405565,
        "meta_mean_motion_dot": 9.19e-06,
        "meta_mean_motion_ddot": 0,
        "tle_line1": "1 39543U 99025EWL 25352.36658279  .00000919  00000+0  72406-3 0  9992",
        "tle_line2": "2 39543  99.0409  21.8883 0339080 127.4128 235.8396 13.70202499492621"
      },
      "geometry": {
        "type": "Point",
        "coordinates": [
          -148.88665143514592,
          35.19593595384841
        ]
      }
    },
    {
      "type": "Feature",
      "properties": {
        "norad_id": 39544,
        "name": "FENGYUN 1C DEB",
        "group": "fengyun-1c-debris",
        "lat": -22.745161315344692,
        "lon": 50.45469024796598,
        "alt_km": 911.2203860305281,
        "timestamp": "2025-12-21T07:34:34.805627+00:00",
        "meta_object_name": "FENGYUN 1C DEB",
        "meta_object_id": "1999-025EWM",
        "meta_epoch": "2025-12-18T10:16:20.672256",
        "meta_mean_motion": 14.05533723,
        "meta_eccentricity": 0.00544071,
        "meta_inclination": 98.7417,
        "meta_ra_of_asc_node": 231.3683,
        "meta_arg_of_pericenter": 353.4562,
        "meta_mean_anomaly": 6.589,
        "meta_ephemeris_type": 0,
        "meta_classification_type": "U",
        "meta_norad_cat_id": 39544,
        "meta_element_set_no": 999,
        "meta_rev_at_epoch": 56935,
        "meta_bstar": 0.00032895311,
        "meta_mean_motion_dot": 4.99e-06,
        "meta_mean_motion_ddot": 0,
        "tle_line1": "1 39544U 99025EWM 25352.42801704  .00000499  00000+0  32895-3 0  9994",
        "tle_line2": "2 39544  98.7417 231.3683 0054407 353.4562   6.5890 14.05533723569356"
      },
      "geometry": {
        "type": "Point",
        "coordinates": [
          50.45469024796598,
          -22.745161315344692
        ]
      }
    }
  ]
}